SatCatId,ObjectName,LaunchYear,OrbitalPeriod,LaunchMass,StatusCode,Inclination,Status,UcsData,OrbitClassEstimated,LaunchSiteCountry,Owner,UseType,Purpose,LaunchVehicleClass,TLE1,TLE2,MeanMotion,Eccentricity,OrbitClass
53531,STARLINK-4487,2022,95.44,260.0,+,53.22,Active,1,LEO,USA,USA,Commercial,Communications,Falcon,1 53531U 22101E   23266.68561629  .00000196  00000+0  30422-4 0  9995,2 53531  53.2179 145.4114 0001800 100.8900 259.2294 15.08844937 60595,15.08844937,0.00018,LEO
53532,STARLINK-4483,2022,95.44,260.0,+,53.22,Active,1,LEO,USA,USA,Commercial,Communications,Falcon,1 53532U 22101F   23265.99009633  .00005496  00000+0  36305-3 0  9994,2 53532  53.2170 148.5400 0001031 104.7238 255.3869 15.08846720 60498,15.0884672,0.0001031,LEO
53533,STARLINK-4493,2022,95.44,260.0,+,53.22,Active,1,LEO,USA,USA,Commercial,Communications,Falcon,1 53533U 22101G   23266.05265218  .00007423  00000+0  48380-3 0  9994,2 53533  53.2161 148.2487 0000971 111.7776 248.3319 15.08854385 60508,15.08854385,9.71e-05,LEO
53534,STARLINK-4488,2022,95.44,260.0,+,53.22,Active,1,LEO,USA,USA,Commercial,Communications,Falcon,1 53534U 22101H   23266.70401716  .00001487  00000+0  11144-3 0  9994,2 53534  53.2158 145.3358 0001324  96.2303 263.8840 15.08849185 60600,15.08849185,0.0001324,LEO
53535,STARLINK-4138,2022,95.44,260.0,+,53.22,Active,1,LEO,USA,USA,Commercial,Communications,Falcon,1 53535U 22101J   23265.98273314  .00005087  00000+0  33745-3 0  9996,2 53535  53.2175 148.5749 0001720  93.2984 266.8205 15.08842118 60495,15.08842118,0.000172,LEO
53536,STARLINK-4053,2022,95.44,260.0,+,53.22,Active,1,LEO,USA,USA,Commercial,Communications,Falcon,1 53536U 22101K   23266.62124445  .00001052  00000+0  84183-4 0  9990,2 53536  53.2161 135.6396 0001507  66.3061 293.8089 15.08842559 60721,15.08842559,0.0001507,LEO
53537,STARLINK-4120,2022,95.44,260.0,+,53.22,Active,1,LEO,USA,USA,Commercial,Communications,Falcon,1 53537U 22101L   23266.11616168  .00004941  00000+0  32827-3 0  9990,2 53537  53.2168 147.9444 0001253 100.8408 259.2726 15.08845046 60511,15.08845046,0.0001253,LEO
53538,STARLINK-4118,2022,95.44,260.0,+,53.22,Active,1,LEO,USA,USA,Commercial,Communications,Falcon,1 53538U 22101M   23266.02781089  .00011195  00000+0  71987-3 0  9995,2 53538  53.2163 138.3685 0001206 119.5318 240.5795 15.08863650 61323,15.0886365,0.0001206,LEO
53539,STARLINK-4123,2022,95.44,260.0,+,53.22,Active,1,LEO,USA,USA,Commercial,Communications,Falcon,1 53539U 22101N   23266.04529411  .00006758  00000+0  44211-3 0  9996,2 53539  53.2162 148.2924 0001029 107.7196 252.3909 15.08855562 60505,15.08855562,0.0001029,LEO
53540,STARLINK-4486,2022,95.44,260.0,+,53.22,Active,1,LEO,USA,USA,Commercial,Communications,Falcon,1 53540U 22101P   23266.02413284  .00009864  00000+0  63659-3 0  9994,2 53540  53.2165 138.3852 0001386  79.5281 280.5867 15.08863361 61320,15.08863361,0.0001386,LEO
53541,STARLINK-4485,2022,95.44,260.0,+,53.22,Active,1,LEO,USA,USA,Commercial,Communications,Falcon,1 53541U 22101Q   23266.70033388 -.00000368  00000+0 -50067-5 0  9996,2 53541  53.2161 145.3527 0001426  96.8639 263.2516 15.08844767 60606,15.08844767,0.0001426,LEO
53542,STARLINK-4489,2022,95.44,260.0,+,53.22,Active,1,LEO,USA,USA,Commercial,Communications,Falcon,1 53542U 22101R   23266.81165507  .00002921  00000+0  20148-3 0  9998,2 53542  53.2155 134.8487 0001436 111.7994 248.3151 15.08846743 60751,15.08846743,0.0001436,LEO
53543,STARLINK-4297,2022,95.44,260.0,+,53.22,Active,1,LEO,USA,USA,Commercial,Communications,Falcon,1 53543U 22101S   23266.03150097  .00006501  00000+0  42594-3 0  9998,2 53543  53.2162 138.4193 0001369 109.6907 250.4233 15.08857155 61327,15.08857155,0.0001369,LEO
53544,STARLINK-4303,2022,95.44,260.0,+,53.22,Active,1,LEO,USA,USA,Commercial,Communications,Falcon,1 53544U 22101T   23265.94317697  .00006237  00000+0  40945-3 0  9993,2 53544  53.2169 138.7497 0001590 106.9745 253.1422 15.08852791 60624,15.08852791,0.000159,LEO
53545,STARLINK-4475,2022,95.44,260.0,+,53.22,Active,1,LEO,USA,USA,Commercial,Communications,Falcon,1 53545U 22101U   23265.95421206  .00011879  00000+0  76267-3 0  9991,2 53545  53.2161 138.6987 0001260  92.0815 268.0321 15.08864678 61314,15.08864678,0.000126,LEO
53546,STARLINK-4477,2022,95.44,260.0,+,53.22,Active,1,LEO,USA,USA,Commercial,Communications,Falcon,1 53546U 22101V   23266.75363475  .00002287  00000+0  16169-3 0  9992,2 53546  53.2161 124.6397 0001421 109.7130 250.4015 15.08848296 60895,15.08848296,0.0001421,LEO
53547,STARLINK-4474,2022,95.44,260.0,+,53.22,Active,1,LEO,USA,USA,Commercial,Communications,Falcon,1 53547U 22101W   23266.80797728  .00014829  00000+0  94769-3 0  9998,2 53547  53.2154 134.8641 0001119 115.0543 245.0566 15.08845893 60751,15.08845893,0.0001119,LEO
53548,STARLINK-4513,2022,95.44,260.0,+,53.22,Active,1,LEO,USA,USA,Commercial,Communications,Falcon,1 53548U 22101X   23266.79325318  .00003213  00000+0  21980-3 0  9999,2 53548  53.2163 134.9342 0001119  98.4108 261.7011 15.08847578 60754,15.08847578,0.0001119,LEO
53549,STARLINK-4516,2022,95.43,260.0,+,53.21,Active,1,LEO,USA,USA,Commercial,Communications,Falcon,1 53549U 22101Y   23266.80060954  .00007758  00000+0  50505-3 0  9997,2 53549  53.2159 134.8973 0001192 116.6548 243.4566 15.08834342 60758,15.08834342,0.0001192,LEO
53550,STARLINK-4518,2022,95.44,260.0,+,53.22,Active,1,LEO,USA,USA,Commercial,Communications,Falcon,1 53550U 22101Z   23266.78957231  .00002927  00000+0  20186-3 0  9994,2 53550  53.2160 134.9505 0001293 101.8344 258.2793 15.08851353 60753,15.08851353,0.0001293,LEO
53551,STARLINK-4514,2022,95.44,260.0,+,53.22,Active,1,LEO,USA,USA,Commercial,Communications,Falcon,1 53551U 22101AA  23266.06829046  .00002391  00000+0  16828-3 0  9991,2 53551  53.2171 138.1826 0001490 100.8896 259.2264 15.08835055 61305,15.08835055,0.000149,LEO
53552,STARLINK-4495,2022,95.44,260.0,+,53.22,Active,1,LEO,USA,USA,Commercial,Communications,Falcon,1 53552U 22101AB  23266.78221388  .00008168  00000+0  53041-3 0  9992,2 53552  53.2162 134.9833 0001529 111.4418 248.6737 15.08857765 60756,15.08857765,0.0001529,LEO
53553,STARLINK-4501,2022,95.44,260.0,+,53.22,Active,1,LEO,USA,USA,Commercial,Communications,Falcon,1 53553U 22101AC  23266.77484107  .00001170  00000+0  91580-4 0  9999,2 53553  53.2158 134.8944 0001434  91.7768 268.3389 15.08847209 60751,15.08847209,0.0001434,LEO
53554,STARLINK-4506,2022,95.44,260.0,+,53.22,Active,1,LEO,USA,USA,Commercial,Communications,Falcon,1 53554U 22101AD  23266.77581340  .00002260  00000+0  16002-3 0  9993,2 53554  53.2158 135.0254 0001296  92.4256 267.6885 15.08847062 60755,15.08847062,0.0001296,LEO
53555,STARLINK-4504,2022,95.44,260.0,+,53.22,Active,1,LEO,USA,USA,Commercial,Communications,Falcon,1 53555U 22101AE  23266.78589603  .00000353  00000+0  40264-4 0  9994,2 53555  53.2179 134.9676 0001469 101.8599 258.2558 15.08846674 60753,15.08846674,0.0001469,LEO
53556,STARLINK-4505,2022,95.44,260.0,+,53.22,Active,1,LEO,USA,USA,Commercial,Communications,Falcon,1 53556U 22101AF  23266.63501473  .00007388  00000+0  48154-3 0  9998,2 53556  53.2156 135.6456 0001684  90.0934 270.0251 15.08860717 60738,15.08860717,0.0001684,LEO
53557,STARLINK-4502,2022,95.44,260.0,+,53.22,Active,1,LEO,USA,USA,Commercial,Communications,Falcon,1 53557U 22101AG  23266.77853495  .00002671  00000+0  18577-3 0  9994,2 53557  53.2161 135.0025 0001374  93.1052 267.0097 15.08848677 60759,15.08848677,0.0001374,LEO
53558,STARLINK-4494,2022,95.44,260.0,+,53.21,Active,1,LEO,USA,USA,Commercial,Communications,Falcon,1 53558U 22101AH  23266.76975746  .00003455  00000+0  23503-3 0  9994,2 53558  53.2154 129.7593 0001383 103.9226 256.1920 15.08849410 60823,15.0884941,0.0001383,LEO
53559,STARLINK-4508,2022,95.43,260.0,+,53.22,Active,1,LEO,USA,USA,Commercial,Communications,Falcon,1 53559U 22101AJ  23266.04253509  .00024595  00000+0  15560-2 0  9993,2 53559  53.2160 138.3056 0001469  86.9863 273.1298 15.08887714 60649,15.08887714,0.0001469,LEO
53560,STARLINK-4564,2022,95.44,260.0,+,53.22,Active,1,LEO,USA,USA,Commercial,Communications,Falcon,1 53560U 22101AK  23266.61387735  .00003373  00000+0  22983-3 0  9996,2 53560  53.2158 125.9204 0001964  92.9317 267.1900 15.08852839 60863,15.08852839,0.0001964,LEO
53561,STARLINK-4563,2022,95.44,260.0,+,53.22,Active,1,LEO,USA,USA,Commercial,Communications,Falcon,1 53561U 22101AL  23266.63133299  .00007393  00000+0  48204-3 0  9993,2 53561  53.2159 135.6621 0001477  95.2309 264.8852 15.08845818 60737,15.08845818,0.0001477,LEO
53562,STARLINK-4565,2022,95.44,260.0,+,53.22,Active,1,LEO,USA,USA,Commercial,Communications,Falcon,1 53562U 22101AM  23266.80891292  .00005397  00000+0  35687-3 0  9990,2 53562  53.2155 125.0074 0001231  98.4554 261.6578 15.08845968 60897,15.08845968,0.0001231,LEO
53563,STARLINK-4561,2022,95.44,260.0,+,53.22,Active,1,LEO,USA,USA,Commercial,Communications,Falcon,1 53563U 22101AN  23266.75004187  .00002448  00000+0  17183-3 0  9999,2 53563  53.2169 125.3440 0001736 101.4790 258.6397 15.08850205 60884,15.08850205,0.0001736,LEO
53564,STARLINK-4577,2022,95.44,260.0,+,53.22,Active,1,LEO,USA,USA,Commercial,Communications,Falcon,1 53564U 22101AP  23266.80154365  .00001461  00000+0  10985-3 0  9997,2 53564  53.2151 124.9605 0001456 119.9127 240.2010 15.08848254 60892,15.08848254,0.0001456,LEO
53565,STARLINK-4575,2022,95.44,260.0,+,53.22,Active,1,LEO,USA,USA,Commercial,Communications,Falcon,1 53565U 22101AQ  23266.01498879  .00017490  00000+0  11132-2 0  9995,2 53565  53.2150 128.5806 0001446  84.4500 275.6657 15.08874522 61432,15.08874522,0.0001446,LEO
53566,STARLINK-4576,2022,95.44,260.0,+,53.22,Active,1,LEO,USA,USA,Commercial,Communications,Falcon,1 53566U 22101AR  23266.79417267  .00002720  00000+0  18887-3 0  9998,2 53566  53.2166 124.9115 0001467 100.9091 259.2066 15.08852728 60890,15.08852728,0.0001467,LEO
